[{"OBJECT_NAME":"BRO-11","OBJECT_ID":"2023-174J","EPOCH":"2026-03-09T23:01:09.890400","MEAN_MOTION":15.26267731,"ECCENTRICITY":0.00104518,"INCLINATION":97.3961,"RA_OF_ASC_NODE":146.7679,"ARG_OF_PERICENTER":189.9892,"MEAN_ANOMALY":170.1141,"EPHEMERIS_TYPE":0,"CLASSIFICATION_TYPE":"U","NORAD_CAT_ID":58264,"ELEMENT_SET_NO":999,"REV_AT_EPOCH":12961,"BSTAR":0.00032296323,"MEAN_MOTION_DOT":8.313e-5,"MEAN_MOTION_DDOT":0},{"OBJECT_NAME":"STARLINK-32579","OBJECT_ID":"2024-207L","EPOCH":"2026-03-08T23:55:51.692448","MEAN_MOTION":15.27614477,"ECCENTRICITY":0.00012096,"INCLINATION":42.9981,"RA_OF_ASC_NODE":289.335,"ARG_OF_PERICENTER":287.7263,"MEAN_ANOMALY":72.3457,"EPHEMERIS_TYPE":0,"CLASSIFICATION_TYPE":"U","NORAD_CAT_ID":61922,"ELEMENT_SET_NO":999,"REV_AT_EPOCH":7457,"BSTAR":0.001259509,"MEAN_MOTION_DOT":0.00034596,"MEAN_MOTION_DDOT":0}]
